[{"OBJECT_NAME":"STARLINK-5322","OBJECT_ID":"2023-010AL","EPOCH":"2026-03-09T09:00:13.300416","MEAN_MOTION":14.98337368,"ECCENTRICITY":0.00028967,"INCLINATION":70.0005,"RA_OF_ASC_NODE":45.0513,"ARG_OF_PERICENTER":272.1045,"MEAN_ANOMALY":87.9783,"EPHEMERIS_TYPE":0,"CLASSIFICATION_TYPE":"U","NORAD_CAT_ID":55303,"ELEMENT_SET_NO":999,"REV_AT_EPOCH":17273,"BSTAR":6.6190871e-5,"MEAN_MOTION_DOT":6.97e-6,"MEAN_MOTION_DDOT":0},{"OBJECT_NAME":"TIANPING 3A-01","OBJECT_ID":"2024-189A","EPOCH":"2026-03-09T23:38:12.967584","MEAN_MOTION":15.01001778,"ECCENTRICITY":0.00023202,"INCLINATION":97.5354,"RA_OF_ASC_NODE":92.2908,"ARG_OF_PERICENTER":68.007,"MEAN_ANOMALY":292.1401,"EPHEMERIS_TYPE":0,"CLASSIFICATION_TYPE":"U","NORAD_CAT_ID":61614,"ELEMENT_SET_NO":999,"REV_AT_EPOCH":7560,"BSTAR":0.00039570452,"MEAN_MOTION_DOT":4.995e-5,"MEAN_MOTION_DDOT":0}]
